STARLINK-1822
1 16719C 20073BB  21326.13889301 -.00014663  00000-0 -98258-3 0  3267
2 16719  53.0555  63.1153 0000532 204.5777 203.8996 15.06409813    18
